STARLINK-5917           
1 55942U 23037AE  25038.86824971  .00001712  00000+0  15119-3 0  9993
2 55942  70.0001 199.7815 0002985 270.0146  90.0671 14.98338698104848
STARLINK-5932           
1 55943U 23037AF  25038.87659273  .00000562  00000+0  54904-4 0  9994
2 55943  70.0008 199.8004 0002824 271.0492  89.0344 14.98332814105181
STARLINK-5926           
1 55944U 23037AG  25038.87241910  .00000288  00000+0  31890-4 0  9994
2 55944  70.0004 199.7950 0003073 270.3218  89.7588 14.98335013104845
STARLINK-5925           
1 55945U 23037AH  25038.88093471  .00000467  00000+0  46927-4 0  9999
2 55945  70.0004 199.8262 0003002 270.6312  89.4503 14.98331766104848
STARLINK-5857           
1 55946U 23037AJ  25038.81400816  .00000721  00000+0  68231-4 0  9993
2 55946  70.0004 199.9930 0002749 275.7269  84.3577 14.98333044104831
STARLINK-5851           
1 55947U 23037AK  25036.86096701  .00067713  00000+0  55534-2 0  9995
2 55947  69.9998 204.8149 0003683 145.5237 214.6162 14.98844837104549
STARLINK-5900           
1 55948U 23037AL  25038.82631105  .00002962  00000+0  25591-3 0  9993
2 55948  69.9999 180.1592 0003209 272.5760  87.5032 14.98328780105329
STARLINK-5899           
1 55949U 23037AM  25038.76789361  .00002054  00000+0  17985-3 0  9995
2 55949  70.0008 180.3575 0003034 265.0701  95.0111 14.98331732105317
STARLINK-5911           
1 55950U 23037AN  25038.82213319  .00000702  00000+0  66583-4 0  9996
2 55950  70.0001 180.1452 0003298 270.7663  89.3118 14.98335346105325
STARLINK-5908           
1 55951U 23037AP  25038.86407232  .00002724  00000+0  23601-3 0  9999
2 55951  69.9997 199.7654 0003115 270.9115  89.1687 14.98330226105184
STARLINK-5893           
1 55952U 23037AQ  25039.09351399 -.00000431  00000+0 -28323-4 0  9990
2 55952  70.0007 179.4879 0003127 270.7068  89.3733 14.98331509105709
STARLINK-5889           
1 55953U 23037AR  25038.77207324 -.00000471  00000+0 -31678-4 0  9994
2 55953  70.0005 180.3733 0003041 269.8905  90.1906 14.98330408105318
STARLINK-5892           
1 55954U 23037AS  25038.79708821 -.00000049  00000+0  36854-5 0  9997
2 55954  70.0007 180.0563 0003087 270.6963  89.3842 14.98331171105321
STARLINK-5878           
1 55955U 23037AT  25038.81380854  .00000565  00000+0  55177-4 0  9993
2 55955  70.0016 180.1155 0002522 268.6583  91.4287 14.98326159105325
STARLINK-5883           
1 55956U 23037AU  25038.78874143  .00000015  00000+0  90410-5 0  9999
2 55956  70.0011 180.0268 0002854 269.7485  90.3347 14.98328860105322
STARLINK-5884           
1 55957U 23037AV  25036.41501118 -.00049809  00000+0 -42399-2 0  9993
2 55957  69.9999 186.1898 0002822 112.5911 247.5547 14.97931514104967
STARLINK-5928           
1 55958U 23037AW  25038.80961454 -.00000175  00000+0 -68839-5 0  9995
2 55958  70.0008 180.0998 0003102 269.3630  90.7174 14.98329405105323
STARLINK-5929           
1 55959U 23037AX  25038.80545150  .00002515  00000+0  21851-3 0  9996
2 55959  70.0005 180.0862 0003217 274.3546  85.7245 14.98329648105322
STARLINK-5938           
1 55960U 23037AY  25038.81813003 -.00001090  00000+0 -83602-4 0  9996
2 55960  70.0008 180.1121 0002892 271.3007  88.7821 14.98315067105326
STARLINK-5933           
1 55961U 23037AZ  25038.79291708 -.00000013  00000+0  67046-5 0  9994
2 55961  70.0010 180.0416 0002619 270.3023  89.7836 14.98328180105327
STARLINK-5906           
1 55962U 23037BA  25038.76372578 -.00000409  00000+0 -26499-4 0  9993
2 55962  70.0010 180.3374 0002827 269.1606  90.9229 14.98326971105313
STARLINK-5924           
1 55963U 23037BB  25038.80126132  .00000409  00000+0  42095-4 0  9990
2 55963  70.0007 180.0712 0002981 269.8118  90.2699 14.98332812105325
STARLINK-5895           
1 55964U 23037BC  25038.76177658  .00003003  00000+0  26473-3 0  9999
2 55964  70.0006 180.2681 0002937 271.0870  88.9952 14.97521809105313
STARLINK-5894           
1 55965U 23037BD  25039.11837532  .00001425  00000+0  12717-3 0  9996
2 55965  70.0004 179.1700 0003263 266.5942  93.4843 14.98341443105712
STARLINK-5905           
1 55986U 23042A   25039.05994311  .00000041  00000+0  18089-4 0  9999
2 55986  43.0059  40.7797 0001208 273.2927  86.7777 15.02533889103889
STARLINK-5915           
1 55987U 23042B   25038.70979566  .00000470  00000+0  49860-4 0  9993
2 55987  43.0034  42.4508 0001196 272.9912  87.0794 15.02537012103490
STARLINK-5916           
1 55988U 23042C   25039.03801766 -.00000761  00000+0 -40269-4 0  9996
2 55988  43.0085  40.6193 0001127 270.4875  89.5839 15.03359387103880
STARLINK-5947           
1 55989U 23042D   25039.04885819  .00001275  00000+0  10948-3 0  9998
2 55989  43.0071  40.6954 0001629 277.0109  83.0548 15.02530204103885
STARLINK-5946           
1 55990U 23042E   25038.72422434  .00000071  00000+0  20326-4 0  9999
2 55990  43.0039  42.5606 0001150 275.9038  84.1673 15.02534782103496
STARLINK-5948           
1 55991U 23042F   25038.36852472  .00001490  00000+0  12538-3 0  9990
2 55991  43.0049  44.1892 0001313 273.6824  86.3869 15.02527501103449
STARLINK-5969           
1 55993U 23042H   25038.71978284  .00000300  00000+0  37278-4 0  9999
2 55993  43.0045  42.5237 0001406 270.7963  89.2718 15.02536475103497
STARLINK-5956           
1 55994U 23042J   25038.44166148  .00001003  00000+0  89298-4 0  9998
2 55994  43.0077  43.8811 0001363 269.6026  90.4660 15.02537648103453
STARLINK-5957           
1 55995U 23042K   25038.71312519  .00000091  00000+0  21824-4 0  9991
2 55995  43.0049  42.4764 0001235 273.4849  86.5852 15.02536622103493
STARLINK-5903           
1 55996U 23042L   25038.69425503  .00000193  00000+0  29372-4 0  9996
2 55996  43.0055  42.3331 0001157 265.3627  94.7083 15.02532877103492
STARLINK-5902           
1 55998U 23042N   25038.68981438 -.00000103  00000+0  74867-5 0  9993
2 55998  43.0067  42.2985 0001251 261.6597  98.4103 15.02536407103498
STARLINK-5901           
1 55999U 23042P   25038.69758753  .00001162  00000+0  10109-3 0  9999
2 55999  43.0026  42.3611 0001280 275.1387  84.9309 15.02533785103494
STARLINK-5910           
1 56000U 23042Q   25039.07647305 -.00001113  00000+0 -67277-4 0  9993
2 56000  43.0045  40.0309 0000858 143.0000 217.0902 15.02554427103891
STARLINK-5944           
1 56001U 23042R   25038.68648393  .00000415  00000+0  45808-4 0  9996
2 56001  43.0038  42.2743 0000866 276.4540  83.6204 15.02536764103491
STARLINK-5799           
1 56002U 23042S   25039.07980555 -.00000835  00000+0 -46756-4 0  9991
2 56002  43.0033  40.0645 0001209 280.8581  79.2125 15.02537193103894
STARLINK-5789           
1 56003U 23042T   25038.69314575 -.00000877  00000+0 -49875-4 0  9993
2 56003  43.0030  42.3229 0001243 262.4078  97.6623 15.02533176103490
STARLINK-5787           
1 56004U 23042U   25039.07314435 -.00000294  00000+0 -66931-5 0  9998
2 56004  43.0052  40.0168 0001189 263.2661  96.8046 15.02536107103899
STARLINK-5801           
1 56005U 23042V   25038.68426422  .00001381  00000+0  11729-3 0  9994
2 56005  43.0048  42.2605 0001208 264.5640  95.5065 15.02538886103497
STARLINK-5794           
1 56006U 23042W   25038.07153314  .00000199  00000+0  29805-4 0  9996
2 56006  42.9998  45.3936 0000676 220.1255 139.9538 15.02538860103400
STARLINK-5806           
1 56007U 23042X   25039.07204309  .00001030  00000+0  91260-4 0  9998
2 56007  43.0051  40.0043 0001111 129.2348 230.8593 15.02544465103894
STARLINK-5803           
1 56008U 23042Y   25038.34604639 -.00000046  00000+0  11823-4 0  9992
2 56008  43.0017  44.0157 0000742 254.5403 105.5357 15.01722346103442
STARLINK-5964           
1 56009U 23042Z   25038.07264650  .00001074  00000+0  94587-4 0  9997
2 56009  43.0057  45.4067 0001400 271.8399  88.2283 15.02538350103402
STARLINK-5968           
1 56010U 23042AA  25038.73297971  .00001346  00000+0  11472-3 0  9997
2 56010  43.0043  41.7630 0001308 265.6492  94.4200 15.02540076103503
STARLINK-5936           
1 56011U 23042AB  25038.66465548  .00000756  00000+0  71036-4 0  9994
2 56011  43.0066  29.9591 0001060 266.1120  93.9601 15.02540322103639
STARLINK-5940           
1 56012U 23042AC  25038.67021034  .00000324  00000+0  39025-4 0  9997
2 56012  43.0035  30.0009 0001182 269.6698  90.4009 15.02536894103639
STARLINK-5941           
1 56013U 23042AD  25039.06205066  .00002352  00000+0  18909-3 0  9991
2 56013  43.0021  39.9270 0000773 184.4797 175.6038 15.02542375103899
STARLINK-5942           
1 56014U 23042AE  25038.66355359  .00000271  00000+0  35109-4 0  9998
2 56014  43.0054  29.9535 0001151 262.8273  97.2439 15.02535225103632
STARLINK-5939           
1 56015U 23042AF  25038.66688213  .00000704  00000+0  67167-4 0  9997
2 56015  42.9971  29.9751 0000851 254.1943 105.8805 15.02543758103636
STARLINK-5943           
1 56016U 23042AG  25038.04860469  .00000323  00000+0  38973-4 0  9995
2 56016  43.0027  33.0728 0001164 272.9278  87.1431 15.02541545103547
STARLINK-5934           
1 56017U 23042AH  25038.65798251  .00002646  00000+0  21079-3 0  9990
2 56017  43.0065  29.9079 0000689 262.3365  97.7399 15.02553313103630
STARLINK-5945           
1 56018U 23042AJ  25038.04971235  .00000704  00000+0  67203-4 0  9992
2 56018  43.0034  33.0825 0001095 266.3830  93.6887 15.02534966103545
STARLINK-5949           
1 56019U 23042AK  25038.66133403 -.00000479  00000+0 -20417-4 0  9995
2 56019  43.0043  29.9337 0001083 267.6712  92.4007 15.02541793103635
STARLINK-5912           
1 56020U 23042AL  25038.65134285  .00002621  00000+0  20910-3 0  9991
2 56020  43.0051  29.8547 0001028 267.0912  92.9813 15.02526654103632
STARLINK-5907           
1 56021U 23042AM  25038.65467530 -.00000131  00000+0  53464-5 0  9991
2 56021  43.0048  29.8848 0001109 266.2118  93.8597 15.02539131103635
STARLINK-5783           
1 56022U 23042AN  25038.97041209  .00000124  00000+0  24239-4 0  9996
2 56022  43.0047  27.9506 0001351 266.3066  93.7622 15.02533935104025
